[{"OBJECT_NAME":"STARLINK-32165","OBJECT_ID":"2024-150S","EPOCH":"2026-03-09T22:12:26.205120","MEAN_MOTION":15.30181375,"ECCENTRICITY":0.00012155,"INCLINATION":53.1618,"RA_OF_ASC_NODE":306.2028,"ARG_OF_PERICENTER":83.39,"MEAN_ANOMALY":276.7239,"EPHEMERIS_TYPE":0,"CLASSIFICATION_TYPE":"U","NORAD_CAT_ID":60599,"ELEMENT_SET_NO":999,"REV_AT_EPOCH":8807,"BSTAR":9.668109e-5,"MEAN_MOTION_DOT":2.504e-5,"MEAN_MOTION_DDOT":0},{"OBJECT_NAME":"OBJECT A","OBJECT_ID":"2025-013A","EPOCH":"2026-03-09T23:29:31.895232","MEAN_MOTION":15.29260221,"ECCENTRICITY":0.0010321,"INCLINATION":97.6364,"RA_OF_ASC_NODE":244.5149,"ARG_OF_PERICENTER":282.3775,"MEAN_ANOMALY":77.6309,"EPHEMERIS_TYPE":0,"CLASSIFICATION_TYPE":"U","NORAD_CAT_ID":62729,"ELEMENT_SET_NO":999,"REV_AT_EPOCH":6276,"BSTAR":0.0013206527,"MEAN_MOTION_DOT":0.00037616,"MEAN_MOTION_DDOT":0}]
